[{"OBJECT_NAME":"STARLINK-5268","OBJECT_ID":"2022-141AM","EPOCH":"2026-03-09T04:08:06.425376","MEAN_MOTION":15.08851902,"ECCENTRICITY":0.00014608,"INCLINATION":53.2195,"RA_OF_ASC_NODE":356.1698,"ARG_OF_PERICENTER":89.4998,"MEAN_ANOMALY":270.6161,"EPHEMERIS_TYPE":0,"CLASSIFICATION_TYPE":"U","NORAD_CAT_ID":54192,"ELEMENT_SET_NO":999,"REV_AT_EPOCH":18592,"BSTAR":0.00020290201,"MEAN_MOTION_DOT":2.944e-5,"MEAN_MOTION_DDOT":0},{"OBJECT_NAME":"AISAT","OBJECT_ID":"2014-034B","EPOCH":"2026-03-09T16:29:04.722144","MEAN_MOTION":15.06703825,"ECCENTRICITY":0.00089151,"INCLINATION":98.2441,"RA_OF_ASC_NODE":333.9816,"ARG_OF_PERICENTER":189.0234,"MEAN_ANOMALY":171.0832,"EPHEMERIS_TYPE":0,"CLASSIFICATION_TYPE":"U","NORAD_CAT_ID":40054,"ELEMENT_SET_NO":999,"REV_AT_EPOCH":63221,"BSTAR":0.00094770343,"MEAN_MOTION_DOT":0.00014038,"MEAN_MOTION_DDOT":0}]
